ITALSAT 1               
1 21055U 91003A   26088.10483819 -.00000312  00000+0  00000+0 0  9999
2 21055  14.5696 352.1121 0014172  46.3683 133.1525  0.99966729116281
COSMOS 2133             
1 21111U 91010A   26087.70330738 -.00000174  00000+0  00000+0 0  9992
2 21111  13.2985 343.3270 0002903 217.0290 319.4905  1.00273855128635
SL-12 R/B(2)            
1 21129U 91010F   26086.54438473  .00000093  00000+0  00000+0 0  9996
2 21129  13.2088 342.9372 0016845 232.7512  12.8517  1.00124388128850
RADUGA 27               
1 21132U 91014A   26087.70313405 -.00000187  00000+0  00000+0 0  9995
2 21132  13.4159 337.4639 0001698 335.4392 205.7889  1.00378708128501
TDRS 5                  
1 21639U 91054B   26087.25558338  .00000072  00000+0  00000+0 0  9999
2 21639  14.0818 354.3784 0009589 279.2122 196.4212  1.00275572126907
IUS R/B(2)              
1 21641U 91054D   26088.10154485 -.00000306  00000+0  00000+0 0  9993
2 21641  13.8386 333.6071 0036778 345.5867 195.2732  1.00371373 46562
COSMOS 2155             
1 21702U 91064A   26087.35697117  .00000081  00000+0  00000+0 0  9991
2 21702  13.1875 339.8560 0002444 266.8192 284.8741  1.00176703126526
SL-12 R/B(2)            
1 21703U 91064B   26087.63900042 -.00000359  00000+0  00000+0 0  9996
2 21703  13.3899 340.5159 0003239   7.8870 183.8247  0.99891109119349
SL-12 R/B(2)            
1 21762U 91074D   26087.90255826 -.00000094  00000+0  00000+0 0  9991
2 21762  13.5085 341.9369 0001886 260.6037 274.8858  0.99709416118876
COSMOS 2172             
1 21789U 91079A   26087.96923947 -.00000171  00000+0  00000+0 0  9993
2 21789  13.3118 340.9374 0004430   8.2903 168.9499  1.00258680 46555
RADUGA 28               
1 21821U 91087A   26087.83701223  .00000114  00000+0  00000+0 0  9992
2 21821  13.4242 341.6362 0003421 191.3488 350.0824  1.00310710125510
PALAPA B4               
1 21964U 92027A   26087.18641887 -.00000371  00000+0  00000+0 0  9998
2 21964  13.1591  17.8832 0003508 344.5256  22.8429  0.99946368 46380
INSAT-2A                
1 22027U 92041A   26087.54697647 -.00000024  00000+0  00000+0 0  9995
2 22027  14.5105 352.4565 0009915 290.6378 275.7293  1.00226354123240
COSMOS 2209             
1 22112U 92059A   26088.03689126 -.00000278  00000+0  00000+0 0  9998
2 22112  13.6405 343.2265 0013254 331.7946 209.3430  1.00232371122816
SL-12 R/B(2)            
1 22115U 92059D   26088.10336485 -.00000288  00000+0  00000+0 0  9997
2 22115  13.8729 344.0622 0011610 336.4853 203.3351  0.99794169121482
HELLAS-SAT 1 (DFS 3)    
1 22175U 92066A   26087.57356681 -.00000336  00000+0  00000+0 0  9995
2 22175  14.2017   7.6619 0000436 293.3069 236.6325  0.99736899119747
GALAXY 7 (G-7)          
1 22205U 92072A   26086.24586990 -.00000208  00000+0  00000+0 0  9995
2 22205  14.4860   3.8994 0007247  28.3465 163.9287  0.99701726116068
