[{"OBJECT_NAME":"ITALSAT 1","OBJECT_ID":"1991-003A","EPOCH":"2026-03-29T02:30:58.019616","MEAN_MOTION":0.99966729,"ECCENTRICITY":0.0014172,"INCLINATION":14.5696,"RA_OF_ASC_NODE":352.1121,"ARG_OF_PERICENTER":46.3683,"MEAN_ANOMALY":133.1525,"EPHEMERIS_TYPE":0,"CLASSIFICATION_TYPE":"U","NORAD_CAT_ID":21055,"ELEMENT_SET_NO":999,"REV_AT_EPOCH":11628,"BSTAR":0,"MEAN_MOTION_DOT":-3.12e-6,"MEAN_MOTION_DDOT":0},{"OBJECT_NAME":"COSMOS 2133","OBJECT_ID":"1991-010A","EPOCH":"2026-03-28T16:52:45.757632","MEAN_MOTION":1.00273855,"ECCENTRICITY":0.0002903,"INCLINATION":13.2985,"RA_OF_ASC_NODE":343.327,"ARG_OF_PERICENTER":217.029,"MEAN_ANOMALY":319.4905,"EPHEMERIS_TYPE":0,"CLASSIFICATION_TYPE":"U","NORAD_CAT_ID":21111,"ELEMENT_SET_NO":999,"REV_AT_EPOCH":12863,"BSTAR":0,"MEAN_MOTION_DOT":-1.74e-6,"MEAN_MOTION_DDOT":0},{"OBJECT_NAME":"SL-12 R/B(2)","OBJECT_ID":"1991-010F","EPOCH":"2026-03-27T13:03:54.840672","MEAN_MOTION":1.00124388,"ECCENTRICITY":0.0016845,"INCLINATION":13.2088,"RA_OF_ASC_NODE":342.9372,"ARG_OF_PERICENTER":232.7512,"MEAN_ANOMALY":12.8517,"EPHEMERIS_TYPE":0,"CLASSIFICATION_TYPE":"U","NORAD_CAT_ID":21129,"ELEMENT_SET_NO":999,"REV_AT_EPOCH":12885,"BSTAR":0,"MEAN_MOTION_DOT":9.3e-7,"MEAN_MOTION_DDOT":0},{"OBJECT_NAME":"RADUGA 27","OBJECT_ID":"1991-014A","EPOCH":"2026-03-28T16:52:30.781920","MEAN_MOTION":1.00378708,"ECCENTRICITY":0.0001698,"INCLINATION":13.4159,"RA_OF_ASC_NODE":337.4639,"ARG_OF_PERICENTER":335.4392,"MEAN_ANOMALY":205.7889,"EPHEMERIS_TYPE":0,"CLASSIFICATION_TYPE":"U","NORAD_CAT_ID":21132,"ELEMENT_SET_NO":999,"REV_AT_EPOCH":12850,"BSTAR":0,"MEAN_MOTION_DOT":-1.87e-6,"MEAN_MOTION_DDOT":0},{"OBJECT_NAME":"TDRS 5","OBJECT_ID":"1991-054B","EPOCH":"2026-03-28T06:08:02.404032","MEAN_MOTION":1.00275572,"ECCENTRICITY":0.0009589,"INCLINATION":14.0818,"RA_OF_ASC_NODE":354.3784,"ARG_OF_PERICENTER":279.2122,"MEAN_ANOMALY":196.4212,"EPHEMERIS_TYPE":0,"CLASSIFICATION_TYPE":"U","NORAD_CAT_ID":21639,"ELEMENT_SET_NO":999,"REV_AT_EPOCH":12690,"BSTAR":0,"MEAN_MOTION_DOT":7.2e-7,"MEAN_MOTION_DDOT":0},{"OBJECT_NAME":"IUS R/B(2)","OBJECT_ID":"1991-054D","EPOCH":"2026-03-29T02:26:13.475040","MEAN_MOTION":1.00371373,"ECCENTRICITY":0.0036778,"INCLINATION":13.8386,"RA_OF_ASC_NODE":333.6071,"ARG_OF_PERICENTER":345.5867,"MEAN_ANOMALY":195.2732,"EPHEMERIS_TYPE":0,"CLASSIFICATION_TYPE":"U","NORAD_CAT_ID":21641,"ELEMENT_SET_NO":999,"REV_AT_EPOCH":4656,"BSTAR":0,"MEAN_MOTION_DOT":-3.06e-6,"MEAN_MOTION_DDOT":0},{"OBJECT_NAME":"COSMOS 2155","OBJECT_ID":"1991-064A","EPOCH":"2026-03-28T08:34:02.309088","MEAN_MOTION":1.00176703,"ECCENTRICITY":0.00024448,"INCLINATION":13.1875,"RA_OF_ASC_NODE":339.856,"ARG_OF_PERICENTER":266.8192,"MEAN_ANOMALY":284.8741,"EPHEMERIS_TYPE":0,"CLASSIFICATION_TYPE":"U","NORAD_CAT_ID":21702,"ELEMENT_SET_NO":999,"REV_AT_EPOCH":12652,"BSTAR":0,"MEAN_MOTION_DOT":8.1e-7,"MEAN_MOTION_DDOT":0},{"OBJECT_NAME":"SL-12 R/B(2)","OBJECT_ID":"1991-064B","EPOCH":"2026-03-28T15:20:09.636288","MEAN_MOTION":0.99891109,"ECCENTRICITY":0.0003239,"INCLINATION":13.3899,"RA_OF_ASC_NODE":340.5159,"ARG_OF_PERICENTER":7.887,"MEAN_ANOMALY":183.8247,"EPHEMERIS_TYPE":0,"CLASSIFICATION_TYPE":"U","NORAD_CAT_ID":21703,"ELEMENT_SET_NO":999,"REV_AT_EPOCH":11934,"BSTAR":0,"MEAN_MOTION_DOT":-3.59e-6,"MEAN_MOTION_DDOT":0},{"OBJECT_NAME":"SL-12 R/B(2)","OBJECT_ID":"1991-074D","EPOCH":"2026-03-28T21:39:41.033664","MEAN_MOTION":0.99709416,"ECCENTRICITY":0.0001886,"INCLINATION":13.5085,"RA_OF_ASC_NODE":341.9369,"ARG_OF_PERICENTER":260.6037,"MEAN_ANOMALY":274.8858,"EPHEMERIS_TYPE":0,"CLASSIFICATION_TYPE":"U","NORAD_CAT_ID":21762,"ELEMENT_SET_NO":999,"REV_AT_EPOCH":11887,"BSTAR":0,"MEAN_MOTION_DOT":-9.4e-7,"MEAN_MOTION_DDOT":0},{"OBJECT_NAME":"COSMOS 2172","OBJECT_ID":"1991-079A","EPOCH":"2026-03-28T23:15:42.290208","MEAN_MOTION":1.0025868,"ECCENTRICITY":0.000443,"INCLINATION":13.3118,"RA_OF_ASC_NODE":340.9374,"ARG_OF_PERICENTER":8.2903,"MEAN_ANOMALY":168.9499,"EPHEMERIS_TYPE":0,"CLASSIFICATION_TYPE":"U","NORAD_CAT_ID":21789,"ELEMENT_SET_NO":999,"REV_AT_EPOCH":4655,"BSTAR":0,"MEAN_MOTION_DOT":-1.71e-6,"MEAN_MOTION_DDOT":0},{"OBJECT_NAME":"RADUGA 28","OBJECT_ID":"1991-087A","EPOCH":"2026-03-28T20:05:17.856672","MEAN_MOTION":1.0031071,"ECCENTRICITY":0.00034214,"INCLINATION":13.4242,"RA_OF_ASC_NODE":341.6362,"ARG_OF_PERICENTER":191.3488,"MEAN_ANOMALY":350.0824,"EPHEMERIS_TYPE":0,"CLASSIFICATION_TYPE":"U","NORAD_CAT_ID":21821,"ELEMENT_SET_NO":999,"REV_AT_EPOCH":12551,"BSTAR":0,"MEAN_MOTION_DOT":1.14e-6,"MEAN_MOTION_DDOT":0},{"OBJECT_NAME":"PALAPA B4","OBJECT_ID":"1992-027A","EPOCH":"2026-03-28T04:28:26.590368","MEAN_MOTION":0.99946368,"ECCENTRICITY":0.0003508,"INCLINATION":13.1591,"RA_OF_ASC_NODE":17.8832,"ARG_OF_PERICENTER":344.5256,"MEAN_ANOMALY":22.8429,"EPHEMERIS_TYPE":0,"CLASSIFICATION_TYPE":"U","NORAD_CAT_ID":21964,"ELEMENT_SET_NO":999,"REV_AT_EPOCH":4638,"BSTAR":0,"MEAN_MOTION_DOT":-3.71e-6,"MEAN_MOTION_DDOT":0},{"OBJECT_NAME":"INSAT-2A","OBJECT_ID":"1992-041A","EPOCH":"2026-03-28T13:07:38.767008","MEAN_MOTION":1.00226354,"ECCENTRICITY":0.00099157,"INCLINATION":14.5105,"RA_OF_ASC_NODE":352.4565,"ARG_OF_PERICENTER":290.6378,"MEAN_ANOMALY":275.7293,"EPHEMERIS_TYPE":0,"CLASSIFICATION_TYPE":"U","NORAD_CAT_ID":22027,"ELEMENT_SET_NO":999,"REV_AT_EPOCH":12324,"BSTAR":0,"MEAN_MOTION_DOT":-2.4e-7,"MEAN_MOTION_DDOT":0},{"OBJECT_NAME":"COSMOS 2209","OBJECT_ID":"1992-059A","EPOCH":"2026-03-29T00:53:07.404864","MEAN_MOTION":1.00232371,"ECCENTRICITY":0.0013254,"INCLINATION":13.6405,"RA_OF_ASC_NODE":343.2265,"ARG_OF_PERICENTER":331.7946,"MEAN_ANOMALY":209.343,"EPHEMERIS_TYPE":0,"CLASSIFICATION_TYPE":"U","NORAD_CAT_ID":22112,"ELEMENT_SET_NO":999,"REV_AT_EPOCH":12281,"BSTAR":0,"MEAN_MOTION_DOT":-2.78e-6,"MEAN_MOTION_DDOT":0},{"OBJECT_NAME":"SL-12 R/B(2)","OBJECT_ID":"1992-059D","EPOCH":"2026-03-29T02:28:50.723040","MEAN_MOTION":0.99794169,"ECCENTRICITY":0.001161,"INCLINATION":13.8729,"RA_OF_ASC_NODE":344.0622,"ARG_OF_PERICENTER":336.4853,"MEAN_ANOMALY":203.3351,"EPHEMERIS_TYPE":0,"CLASSIFICATION_TYPE":"U","NORAD_CAT_ID":22115,"ELEMENT_SET_NO":999,"REV_AT_EPOCH":12148,"BSTAR":0,"MEAN_MOTION_DOT":-2.88e-6,"MEAN_MOTION_DDOT":0},{"OBJECT_NAME":"HELLAS-SAT 1 (DFS 3)","OBJECT_ID":"1992-066A","EPOCH":"2026-03-28T13:45:56.172384","MEAN_MOTION":0.99736899,"ECCENTRICITY":4.36e-5,"INCLINATION":14.2017,"RA_OF_ASC_NODE":7.6619,"ARG_OF_PERICENTER":293.3069,"MEAN_ANOMALY":236.6325,"EPHEMERIS_TYPE":0,"CLASSIFICATION_TYPE":"U","NORAD_CAT_ID":22175,"ELEMENT_SET_NO":999,"REV_AT_EPOCH":11974,"BSTAR":0,"MEAN_MOTION_DOT":-3.36e-6,"MEAN_MOTION_DDOT":0},{"OBJECT_NAME":"GALAXY 7 (G-7)","OBJECT_ID":"1992-072A","EPOCH":"2026-03-27T05:54:03.159360","MEAN_MOTION":0.99701726,"ECCENTRICITY":0.0007247,"INCLINATION":14.486,"RA_OF_ASC_NODE":3.8994,"ARG_OF_PERICENTER":28.3465,"MEAN_ANOMALY":163.9287,"EPHEMERIS_TYPE":0,"CLASSIFICATION_TYPE":"U","NORAD_CAT_ID":22205,"ELEMENT_SET_NO":999,"REV_AT_EPOCH":11606,"BSTAR":0,"MEAN_MOTION_DOT":-2.08e-6,"MEAN_MOTION_DDOT":0}]
